IRIDIUM 36              
1 24967U 97056C   24160.90586826  .00000911  00000+0  30200-3 0  9990
2 24967  86.3956 329.7719 0002260  94.0840 266.0615 14.36834510398607
IRIDIUM 39              
1 25042U 97069D   24161.54552626  .00001238  00000+0  32725-3 0  9998
2 25042  86.3926  10.8236 0020334 107.8091 252.5333 14.47990804395272
IRIDIUM 38              
1 25043U 97069E   24160.49822698  .00000789  00000+0  25829-3 0  9998
2 25043  86.3974  30.3150 0000818 136.6662 223.4600 14.37287487392521
IRIDIUM 42              
1 25077U 97077A   24160.88927297  .00000701  00000+0  23653-3 0  9995
2 25077  86.3978  35.8607 0001564  88.0989 272.0387 14.35587155387620
IRIDIUM 44              
1 25078U 97077B   24161.14996288  .00000844  00000+0  26494-3 0  9996
2 25078  86.3968  18.6819 0002930 125.7614 234.3857 14.39424704390054
IRIDIUM 45              
1 25104U 97082A   24161.22879422  .00012638  00000+0  71033-3 0  9994
2 25104  86.3754 225.9831 0156793 267.9920  90.3352 15.03205307395918
IRIDIUM 24              
1 25105U 97082B   24161.31759419  .00001025  00000+0  31150-3 0  9992
2 25105  86.3928 238.1996 0010022 220.4439 139.6017 14.41209993389748
IRIDIUM 51              
1 25262U 98018A   24161.23316869  .00021905  00000+0  10142-2 0  9991
2 25262  86.3961 235.8253 0144624 211.3130 147.9438 15.11053975390434
